     2.100          NAVIGATION                              RINEX VERSION / TYPE
fic2rin                                 10/31/2015 00:21:12 PGM / RUN BY / DATE
                                                            END OF HEADER
16 15 10 30 20  0  0.0 -.713225454092D-04  .375166564481D-11  .000000000000D+00
     .560000000000D+02 -.914687500000D+02  .396337937637D-08  .181331482638D+01
    -.467896461487D-05  .814798066858D-02  .391528010368D-05  .515364843178D+04
     .504000000000D+06 -.115483999252D-06 -.435154823728D+00  .106170773506D-06
     .990846384683D+00  .322843750000D+03  .316601133399D+00 -.809640867649D-08
    -.332156692802D-09  .100000000000D+01  .186800000000D+04  .000000000000D+00
     .240000000000D+01  .000000000000D+00 -.102445483208D-07  .560000000000D+02
     .496806000000D+06  .400000000000D+01
18 15 10 30 20  0  0.0  .448049511760D-03  .363797880709D-11  .000000000000D+00
     .890000000000D+02 -.291875000000D+02  .561951978984D-08  .237618022892D+01
    -.168569386005D-05  .163744384190D-01  .611506402493D-05  .515363491440D+04
     .504000000000D+06  .968575477600D-07  .261303820106D+01 -.253319740295D-06
     .925084251049D+00  .240125000000D+03 -.193162541337D+01 -.830534595100D-08
    -.382158775590D-09  .100000000000D+01  .186800000000D+04  .000000000000D+00
     .240000000000D+01  .000000000000D+00 -.111758708954D-07  .890000000000D+02
     .496806000000D+06  .400000000000D+01
19 15 10 30 20  0  0.0 -.522167421877D-03 -.454747350886D-12  .000000000000D+00
     .750000000000D+02 -.791875000000D+02  .396445084958D-08 -.958182765278D+00
    -.392086803913D-05  .113514102995D-01  .110678374767D-04  .515516580582D+04
     .504000000000D+06  .253319740295D-06  .637811506198D+00  .912696123123D-07
     .971342829608D+00  .165687500000D+03  .657318385023D+00 -.778282418587D-08
     .268225458381D-09  .100000000000D+01  .186800000000D+04  .000000000000D+00
     .240000000000D+01  .000000000000D+00 -.149011611938D-07  .750000000000D+02
     .496806000000D+06  .400000000000D+01
20 15 10 30 20  0  0.0  .367207452655D-03  .295585778076D-11  .000000000000D+00
     .360000000000D+02 -.188437500000D+02  .579559855280D-08  .143227617754D+00
    -.843778252602D-06  .498682796024D-02  .612996518612D-05  .515365201759D+04
     .504000000000D+06 -.558793544769D-08  .256093267687D+01 -.558793544769D-08
     .926260830710D+00  .243375000000D+03  .125723055092D+01 -.875072164554D-08
    -.315013121561D-09  .100000000000D+01  .186800000000D+04  .000000000000D+00
     .240000000000D+01  .000000000000D+00 -.838190317154D-08  .360000000000D+02
     .496806000000D+06  .400000000000D+01
21 15 10 30 20  0  0.0 -.490239355713D-03 -.250111042988D-11  .000000000000D+00
     .310000000000D+02  .287812500000D+02  .524593279987D-08 -.297187528183D+01
     .118091702461D-05  .226205894724D-01  .747106969357D-05  .515372895050D+04
     .504000000000D+06  .305473804474D-06  .156997550540D+01 -.121071934700D-06
     .934454002891D+00  .217906250000D+03 -.186612015937D+01 -.800711924294D-08
     .597882047044D-09  .100000000000D+01  .186800000000D+04  .000000000000D+00
     .240000000000D+01  .000000000000D+00 -.116415321827D-07  .310000000000D+02
     .496806000000D+06  .400000000000D+01
22 15 10 30 20  0  0.0  .405924860388D-03  .375166564481D-11  .000000000000D+00
     .760000000000D+02 -.261562500000D+02  .583202864169D-08  .189013986398D+01
    -.140070915222D-05  .799943576567D-02  .645406544209D-05  .515366829109D+04
     .504000000000D+06 -.130385160446D-06  .261392257893D+01 -.193715095520D-06
     .922915217523D+00  .236937500000D+03 -.204559247955D+01 -.859964392397D-08
    -.307512809143D-09  .100000000000D+01  .186800000000D+04  .000000000000D+00
     .485000000000D+01  .000000000000D+00 -.176951289177D-07  .760000000000D+02
     .496806000000D+06  .400000000000D+01
23 15 10 30 20  0  0.0 -.141744967550D-03 -.204636307899D-11  .000000000000D+00
     .690000000000D+02  .614687500000D+02  .467055169008D-08 -.374083895330D+00
     .310689210892D-05  .103925552685D-01  .114496797323D-04  .515378698540D+04
     .504000000000D+06  .633299350739D-07 -.259626385279D+01  .949949026108D-07
     .947698550740D+00  .150656250000D+03 -.262438933646D+01 -.816248285732D-08
    -.406802659249D-09  .100000000000D+01  .186800000000D+04  .000000000000D+00
     .240000000000D+01  .000000000000D+00 -.200234353542D-07  .690000000000D+02
     .496806000000D+06  .400000000000D+01
24 15 10 30 20  0  0.0 -.717584043741D-05 -.568434188608D-12  .000000000000D+00
     .900000000000D+01  .884375000000D+02  .471769651100D-08 -.101714917630D+01
     .463239848614D-05  .360960152466D-02  .463798642159D-05  .515365447998D+04
     .504000000000D+06  .726431608200D-07 -.156953534846D+01 -.558793544769D-07
     .951556115035D+00  .288031250000D+03  .293748366359D+00 -.836963434315D-08
     .102147111980D-09  .100000000000D+01  .186800000000D+04  .000000000000D+00
     .240000000000D+01  .000000000000D+00  .279396772385D-08  .900000000000D+01
     .496806000000D+06  .400000000000D+01
25 15 10 30 20  0  0.0 -.601266510785D-04 -.557065504836D-11  .000000000000D+00
     .420000000000D+02 -.766562500000D+02  .412195741036D-08 -.308219457494D+01
    -.391155481339D-05  .467490532901D-02  .329315662384D-05  .515360815048D+04
     .504000000000D+06 -.149011611938D-07 -.502305218343D+00 -.335276126862D-07
     .978662405629D+00  .323968750000D+03  .723826842408D+00 -.806569311135D-08
    -.193936649668D-09  .100000000000D+01  .186800000000D+04  .000000000000D+00
     .240000000000D+01  .000000000000D+00  .558793544769D-08  .420000000000D+02
     .496806000000D+06  .400000000000D+01
26 15 10 30 20  0  0.0 -.103360507637D-03 -.144382283906D-10  .000000000000D+00
     .800000000000D+02 -.797500000000D+02  .467448042516D-08  .285892438341D+01
    -.410154461861D-05  .280716456473D-03  .277906656265D-05  .515365721130D+04
     .504000000000D+06 -.298023223877D-07 -.507613710640D+00 -.149011611938D-07
     .960717600007D+00  .325593750000D+03 -.244904175185D+00 -.845392356842D-08
    -.211437378644D-09  .100000000000D+01  .186800000000D+04  .000000000000D+00
     .240000000000D+01  .000000000000D+00  .745058059692D-08  .800000000000D+02
     .496806000000D+06  .400000000000D+01
27 15 10 30 20  0  0.0  .318172387779D-04  .306954461848D-11  .000000000000D+00
     .910000000000D+02 -.868750000000D+02  .400159525393D-08  .786248427477D+00
    -.453554093838D-05  .272695173044D-02  .115726143122D-04  .515371475792D+04
     .504000000000D+06  .186264514923D-07  .539971211511D+00  .670552253723D-07
     .969262345050D+00  .160906250000D+03  .296628445365D+00 -.779103881375D-08
     .151077721565D-09  .100000000000D+01  .186800000000D+04  .000000000000D+00
     .240000000000D+01  .000000000000D+00  .186264514923D-08  .910000000000D+02
     .496806000000D+06  .400000000000D+01
28 15 10 30 20  0  0.0  .478044152260D-03  .261479726760D-11  .000000000000D+00
     .160000000000D+03 -.845000000000D+02  .390623413890D-08  .162004134874D+01
    -.480003654957D-05  .198779252823D-01  .352598726749D-05  .515370225143D+04
     .504000000000D+06  .428408384323D-07 -.429968675270D+00 -.435858964920D-06
     .989502891922D+00  .328187500000D+03 -.165303499223D+01 -.804569227824D-08
    -.208580116771D-09  .100000000000D+01  .186800000000D+04  .000000000000D+00
     .340000000000D+01  .000000000000D+00 -.111758708954D-07  .160000000000D+03
     .496806000000D+06  .400000000000D+01
29 15 10 30 20  0  0.0  .642176251858D-03  .181898940355D-11  .000000000000D+00
     .880000000000D+02 -.656250000000D+02  .389801951102D-08 -.295853742175D+01
    -.342354178429D-05  .859068124555D-03  .111088156700D-04  .515367449188D+04
     .504000000000D+06  .167638063431D-07  .598152303239D+00  .260770320892D-07
     .975199758996D+00  .170593750000D+03 -.510902062287D+00 -.768067707389D-08
     .223580741607D-09  .100000000000D+01  .186800000000D+04  .000000000000D+00
     .240000000000D+01  .000000000000D+00 -.102445483208D-07  .880000000000D+02
     .496806000000D+06  .400000000000D+01
30 15 10 30 20  0  0.0  .494113191962D-04  .591171556152D-11  .000000000000D+00
     .830000000000D+02  .997500000000D+02  .475376944215D-08 -.208131326858D+01
     .509433448315D-05  .170435965993D-02  .409781932831D-05  .515368258667D+04
     .504000000000D+06 -.242143869400D-07 -.147880299675D+01 -.447034835815D-07
     .954166284193D+00  .296531250000D+03 -.312375723035D+01 -.842463663422D-08
     .191793703263D-09  .100000000000D+01  .186800000000D+04  .000000000000D+00
     .240000000000D+01  .000000000000D+00  .325962901115D-08  .830000000000D+02
     .496806000000D+06  .400000000000D+01
31 15 10 30 20  0  0.0  .297188293189D-03 -.147792889038D-11  .000000000000D+00
     .170000000000D+02  .104281250000D+03  .436661045828D-08 -.199133584697D+01
     .541098415852D-05  .821169745177D-02  .426359474659D-05  .515362504959D+04
     .504000000000D+06 -.838190317154D-07 -.151751517384D+01  .204890966415D-07
     .973251876259D+00  .308531250000D+03 -.510484462081D+00 -.822748556494D-08
     .229295265354D-09  .100000000000D+01  .186800000000D+04  .000000000000D+00
     .240000000000D+01  .000000000000D+00 -.135041773319D-07  .170000000000D+02
     .496806000000D+06  .400000000000D+01
32 15 10 30 20  0  0.0  .174855813384D-05  .117097442853D-10  .000000000000D+00
     .670000000000D+02 -.261562500000D+02  .526557647525D-08 -.157881482217D+01
    -.141747295856D-05  .113614317961D-01  .709481537342D-05  .515365801048D+04
     .504000000000D+06  .109896063805D-06  .271851637787D+01 -.134110450745D-06
     .947018286519D+00  .234687500000D+03  .161060501365D+00 -.833320425426D-08
    -.237867050975D-09  .100000000000D+01  .186800000000D+04  .000000000000D+00
     .240000000000D+01  .000000000000D+00 -.325962901115D-08  .670000000000D+02
     .496806000000D+06  .400000000000D+01
